{
  "type": "FeatureCollection",
  "features": [
    {
      "type": "Feature",
      "properties": {
        "norad_id": 29843,
        "name": "FENGYUN 1C DEB",
        "group": "fengyun-1c-debris",
        "lat": -51.19235428484008,
        "lon": 9.199307062865982,
        "alt_km": 670.4746177914176,
        "timestamp": "2025-12-27T17:24:57.676938+00:00",
        "meta_object_name": "FENGYUN 1C DEB",
        "meta_object_id": "1999-025EM",
        "meta_epoch": "2025-12-27T11:33:56.630016",
        "meta_mean_motion": 14.28583835,
        "meta_eccentricity": 0.01916,
        "meta_inclination": 99.0366,
        "meta_ra_of_asc_node": 200.3597,
        "meta_arg_of_pericenter": 247.8879,
        "meta_mean_anomaly": 171.758,
        "meta_ephemeris_type": 0,
        "meta_classification_type": "U",
        "meta_norad_cat_id": 29843,
        "meta_element_set_no": 999,
        "meta_rev_at_epoch": 98492,
        "meta_bstar": 0.00029563,
        "meta_mean_motion_dot": 8.49e-06,
        "meta_mean_motion_ddot": 0,
        "tle_line1": "1 29843U 99025EM  25361.48190544  .00000849  00000+0  29563-3 0  9991",
        "tle_line2": "2 29843  99.0366 200.3597 0191600 247.8879 171.7580 14.28583835984927"
      },
      "geometry": {
        "type": "Point",
        "coordinates": [
          9.199307062865982,
          -51.19235428484008
        ]
      }
    },
    {
      "type": "Feature",
      "properties": {
        "norad_id": 29844,
        "name": "FENGYUN 1C DEB",
        "group": "fengyun-1c-debris",
        "lat": 77.22237242656472,
        "lon": 127.45893196418879,
        "alt_km": 667.1270112533366,
        "timestamp": "2025-12-27T17:24:57.676948+00:00",
        "meta_object_name": "FENGYUN 1C DEB",
        "meta_object_id": "1999-025EN",
        "meta_epoch": "2025-12-27T06:53:49.663968",
        "meta_mean_motion": 14.32019132,
        "meta_eccentricity": 0.0168716,
        "meta_inclination": 98.9369,
        "meta_ra_of_asc_node": 263.0707,
        "meta_arg_of_pericenter": 124.6565,
        "meta_mean_anomaly": 237.0652,
        "meta_ephemeris_type": 0,
        "meta_classification_type": "U",
        "meta_norad_cat_id": 29844,
        "meta_element_set_no": 999,
        "meta_rev_at_epoch": 98549,
        "meta_bstar": 0.00044392,
        "meta_mean_motion_dot": 1.345e-05,
        "meta_mean_motion_ddot": 0,
        "tle_line1": "1 29844U 99025EN  25361.28738037  .00001345  00000+0  44392-3 0  9994",
        "tle_line2": "2 29844  98.9369 263.0707 0168716 124.6565 237.0652 14.32019132985492"
      },
      "geometry": {
        "type": "Point",
        "coordinates": [
          127.45893196418879,
          77.22237242656472
        ]
      }
    },
    {
      "type": "Feature",
      "properties": {
        "norad_id": 29845,
        "name": "FENGYUN 1C DEB",
        "group": "fengyun-1c-debris",
        "lat": 53.12575501936504,
        "lon": -9.859596573203344,
        "alt_km": 751.5047980678737,
        "timestamp": "2025-12-27T17:24:57.676959+00:00",
        "meta_object_name": "FENGYUN 1C DEB",
        "meta_object_id": "1999-025EP",
        "meta_epoch": "2025-12-27T12:41:15.742752",
        "meta_mean_motion": 14.26522122,
        "meta_eccentricity": 0.0078177,
        "meta_inclination": 98.5222,
        "meta_ra_of_asc_node": 1.4793,
        "meta_arg_of_pericenter": 88.3163,
        "meta_mean_anomaly": 35.0501,
        "meta_ephemeris_type": 0,
        "meta_classification_type": "U",
        "meta_norad_cat_id": 29845,
        "meta_element_set_no": 999,
        "meta_rev_at_epoch": 98320,
        "meta_bstar": 0.00057403,
        "meta_mean_motion_dot": 1.387e-05,
        "meta_mean_motion_ddot": 0,
        "tle_line1": "1 29845U 99025EP  25361.52865443  .00001387  00000+0  57403-3 0  9997",
        "tle_line2": "2 29845  98.5222   1.4793 0078177  88.3163  35.0501 14.26522122983204"
      },
      "geometry": {
        "type": "Point",
        "coordinates": [
          -9.859596573203344,
          53.12575501936504
        ]
      }
    },
    {
      "type": "Feature",
      "properties": {
        "norad_id": 29846,
        "name": "FENGYUN 1C DEB",
        "group": "fengyun-1c-debris",
        "lat": 46.0402303282816,
        "lon": 34.10826588844914,
        "alt_km": 874.3616904192404,
        "timestamp": "2025-12-27T17:24:57.676969+00:00",
        "meta_object_name": "FENGYUN 1C DEB",
        "meta_object_id": "1999-025EQ",
        "meta_epoch": "2025-12-27T02:12:59.804640",
        "meta_mean_motion": 14.19101508,
        "meta_eccentricity": 0.00837906,
        "meta_inclination": 98.6533,
        "meta_ra_of_asc_node": 42.5759,
        "meta_arg_of_pericenter": 262.4421,
        "meta_mean_anomaly": 150.2233,
        "meta_ephemeris_type": 0,
        "meta_classification_type": "U",
        "meta_norad_cat_id": 29846,
        "meta_element_set_no": 999,
        "meta_rev_at_epoch": 98063,
        "meta_bstar": 0.00016484488,
        "meta_mean_motion_dot": 3.13e-06,
        "meta_mean_motion_ddot": 0,
        "tle_line1": "1 29846U 99025EQ  25361.09235885  .00000313  00000+0  16484-3 0  9993",
        "tle_line2": "2 29846  98.6533  42.5759 0083790 262.4421 150.2233 14.19101508980637"
      },
      "geometry": {
        "type": "Point",
        "coordinates": [
          34.10826588844914,
          46.0402303282816
        ]
      }
    },
    {
      "type": "Feature",
      "properties": {
        "norad_id": 29847,
        "name": "FENGYUN 1C DEB",
        "group": "fengyun-1c-debris",
        "lat": 33.36496365742928,
        "lon": -176.76743912484088,
        "alt_km": 933.6701605016206,
        "timestamp": "2025-12-27T17:24:57.676979+00:00",
        "meta_object_name": "FENGYUN 1C DEB",
        "meta_object_id": "1999-025ER",
        "meta_epoch": "2025-12-27T12:08:52.749312",
        "meta_mean_motion": 14.03015558,
        "meta_eccentricity": 0.0084686,
        "meta_inclination": 98.9042,
        "meta_ra_of_asc_node": 357.0925,
        "meta_arg_of_pericenter": 357.9381,
        "meta_mean_anomaly": 119.5786,
        "meta_ephemeris_type": 0,
        "meta_classification_type": "U",
        "meta_norad_cat_id": 29847,
        "meta_element_set_no": 999,
        "meta_rev_at_epoch": 96942,
        "meta_bstar": 0.00033426,
        "meta_mean_motion_dot": 4.92e-06,
        "meta_mean_motion_ddot": 0,
        "tle_line1": "1 29847U 99025ER  25361.50616608  .00000492  00000+0  33426-3 0  9999",
        "tle_line2": "2 29847  98.9042 357.0925 0084686 357.9381 119.5786 14.03015558969422"
      },
      "geometry": {
        "type": "Point",
        "coordinates": [
          -176.76743912484088,
          33.36496365742928
        ]
      }
    },
    {
      "type": "Feature",
      "properties": {
        "norad_id": 29848,
        "name": "FENGYUN 1C DEB",
        "group": "fengyun-1c-debris",
        "lat": 2.9123458321344695,
        "lon": 47.75543996322611,
        "alt_km": 802.2467658116329,
        "timestamp": "2025-12-27T17:24:57.676989+00:00",
        "meta_object_name": "FENGYUN 1C DEB",
        "meta_object_id": "1999-025ES",
        "meta_epoch": "2025-12-27T05:20:01.744224",
        "meta_mean_motion": 14.20649636,
        "meta_eccentricity": 0.0116246,
        "meta_inclination": 98.248,
        "meta_ra_of_asc_node": 226.8627,
        "meta_arg_of_pericenter": 252.7919,
        "meta_mean_anomaly": 232.2094,
        "meta_ephemeris_type": 0,
        "meta_classification_type": "U",
        "meta_norad_cat_id": 29848,
        "meta_element_set_no": 999,
        "meta_rev_at_epoch": 97323,
        "meta_bstar": 0.0013859,
        "meta_mean_motion_dot": 3.155e-05,
        "meta_mean_motion_ddot": 0,
        "tle_line1": "1 29848U 99025ES  25361.22224241  .00003155  00000+0  13859-2 0  9993",
        "tle_line2": "2 29848  98.2480 226.8627 0116246 252.7919 232.2094 14.20649636973239"
      },
      "geometry": {
        "type": "Point",
        "coordinates": [
          47.75543996322611,
          2.9123458321344695
        ]
      }
    },
    {
      "type": "Feature",
      "properties": {
        "norad_id": 29849,
        "name": "FENGYUN 1C DEB",
        "group": "fengyun-1c-debris",
        "lat": -75.75605297530649,
        "lon": -132.68687702601628,
        "alt_km": 897.0702010095429,
        "timestamp": "2025-12-27T17:24:57.677000+00:00",
        "meta_object_name": "FENGYUN 1C DEB",
        "meta_object_id": "1999-025ET",
        "meta_epoch": "2025-12-27T04:31:41.013696",
        "meta_mean_motion": 14.04934593,
        "meta_eccentricity": 0.00798135,
        "meta_inclination": 99.0103,
        "meta_ra_of_asc_node": 85.4647,
        "meta_arg_of_pericenter": 3.842,
        "meta_mean_anomaly": 61.4327,
        "meta_ephemeris_type": 0,
        "meta_classification_type": "U",
        "meta_norad_cat_id": 29849,
        "meta_element_set_no": 999,
        "meta_rev_at_epoch": 96573,
        "meta_bstar": 0.0011327907,
        "meta_mean_motion_dot": 1.83e-05,
        "meta_mean_motion_ddot": 0,
        "tle_line1": "1 29849U 99025ET  25361.18866914  .00001830  00000+0  11328-2 0  9995",
        "tle_line2": "2 29849  99.0103  85.4647 0079813   3.8420  61.4327 14.04934593965730"
      },
      "geometry": {
        "type": "Point",
        "coordinates": [
          -132.68687702601628,
          -75.75605297530649
        ]
      }
    }
  ]
}